#dP2021 12 19  0  0  0.00000000     288   u+U IGb14 FIT  GFZ                    
## 2189      0.00000000   300.00000000 59567 0.0000000000000                    
+  122   C02C03C04C05C06C07C08C09C10C11C12C13C14C16C19C20C21                    
+        C22C23C24C25C26C27C28C29C30C32C33C34C35C36C37C38C39                    
+        C40C41C42C43C44C45C46C59C60E01E02E03E04E05E07E08E09                    
+        E11E12E13E14E15E18E19E21E24E25E26E27E30E31E33E36G01                    
+        G02G03G04G05G06G07G08G09G10G11G12G13G14G15G16G17G18                    
+        G19G20G21G22G23G24G25G26G27G28G29G30G31G32J01J02J03                    
+        R01R02R03R04R05R07R08R09R11R12R13R14R15R17R18R19R20                    
+        R21R22R24 00 00 00 00 00 00 00 00 00 00 00 00 00 00                    
++        10 10 10 10 10 10 10  8 10  7  6 10  6 10  6  8  6                    
++         7  6  6  6  7  6  6  7  6  7  6  7  7  7  6 10 10                    
++        10  5  6  6  7  8  8 10 10  6  6  5  6  5  5  5  5                    
++         8  8  6  6  5  5  5  6  8  6  6  9  5  6  5  8  5                    
++         8  5  5  6  5  5  5  5  7  9  5  6  7  7  5  5  5                    
++         5  7  5  6  6  5  6  6  6  6  7  6  6  5  8 10 10                    
++        10  6  6  7  9  5  6  6  6  7  6  7  9  7  7  9  7                    
++         7  7  5  0  0  0  0  0  0  0  0  0  0  0  0  0  0                    
%c M  cc GPS ccc cccc cccc cccc cccc ccccc ccccc ccccc ccccc                    
%c cc cc ccc ccc cccc cccc cccc cccc ccccc ccccc ccccc ccccc                    
%f  1.2500000  1.025000000  0.00000000000  0.000000000000000                    
%f  0.0000000  0.000000000  0.00000000000  0.000000000000000                    
%i    0    0    0    0      0      0      0      0         0                    
%i    0    0    0    0      0      0      0      0         0                    
/* PCV:IGS14_2178 OL/AL:FES2004  NONE     YN CLK:CoN ORB:CoN                    
/*     GeoForschungsZentrum Potsdam                                             
/*                                                                              
/*                                                                              
*  2021 12 19  6  5  0.00000000                                                 
PC02   4557.958640  41922.009245     10.244217    793.486446                    
PC03 -14745.658461  39518.243952   -818.665761    395.522955                    
PC04 -39657.775895  14361.124085   -586.190051   -282.030987                    
PC05  21896.669427  36034.979991    323.351671    338.039071                    
PC06 -10974.883073  24005.897513  32816.522212    659.438325                    
PC07 -12997.543773  39981.615812  -4024.713007    104.616635                    
PC08   2730.615399  32379.867518 -26777.968478    -10.576126                    
PC09  -3282.456723  24565.126721  34400.093322   -360.757840                    
PC10  -7416.798387  40409.868976 -10218.647520    137.807789                    
PC11 -27799.972544   1331.155173  -2228.867228   -324.344060                    
PC12 -21882.395916  -9447.891141  14573.603432   -428.021415                    
PC13   6101.595267  34511.509961 -23104.428964   -173.525986                    
PC14 -19049.174810   7646.261259 -18911.984741    492.708505                    
PC16 -16832.959670  22590.219549  31428.107196     28.678514                    
PC19  18639.892710 -16873.479790  12115.327590    920.859857                    
PC20  16877.605889    952.907314  22207.293183   -795.835689                    
PC21  -4857.308804 -19274.161693 -19571.315890   -949.514029                    
PC22   9684.777106 -25591.131091  -5434.496189   -965.232406                    
PC23   -756.603069  22228.279332  16848.330563   -963.416424                    
PC24 -19982.642192 -12816.413687  14683.519049   -950.575398                    
PC25 -14169.546644   7954.880340  22679.037760   -807.817693                    
PC26 -14624.127051 -23786.761274   -544.052806    805.842230                    
PC27  13699.387918  13768.349618 -20057.034024    647.511060                    
PC28  -7470.389416  15329.422876 -22083.330728     10.614586                    
PC29  24071.793259  -8782.505919  11053.042698    489.605216                    
PC30  26808.774981   3580.376922  -6917.348300    489.125000                    
PC32   4966.234439  19302.796814  19541.617763   -956.863897                    
PC33 -18570.915749  16921.590979 -12157.086801   -959.582699                    
PC34 -27058.984994  -3052.367886   6047.126080   -511.448424                    
PC35   7622.659803 -15569.620583  21872.973747     52.830564                    
PC36  14593.561196  -7180.922945 -22655.460978   -836.821880                    
PC37  13415.508211  24402.787625   1567.973346   -916.499387                    
PC38  -6410.702933  27524.062101 -31216.821230    197.697080                    
PC39 -21012.350269  22419.087556  28796.359300     34.399359                    
PC40 -20457.252601  36960.998995     -5.151616    227.857965                    
PC41  -9834.667921  25617.801552   5093.129059   -916.904009                    
PC42 -16547.150217  -1914.493274 -22353.252149   -932.535564                    
PC43 -24449.538602   8392.936551 -10488.789723   -953.505630                    
PC44 -13919.661736 -13474.087315  20069.454219    503.006348                    
PC45    458.360735 -22316.887485 -16767.108989    630.783113                    
PC46  19938.255192  11553.860628 -15707.846456    -68.278581                    
PC59 -32344.409787  27032.472040    531.592147      0.078693                    
PC60   7291.403830  41494.148231  -1641.332013     -0.324842                    
PE01  16276.311436  -4483.620323 -24312.467288   -541.101157                    
PE02 -16259.790718   4619.772268  24297.122312    267.824089                    
PE03 -26573.100940   9744.445221  -8690.617488   -507.890565                    
PE04  19241.486358 -20365.560966  -9556.590633   -923.933254                    
PE05 -18415.515425  -6800.109699 -22158.626578   -225.362954                    
PE07   -355.801872  19168.539179  22551.317573   -619.150014                    
PE08 -18899.211312  20497.811628   9946.753978   5886.475533                    
PE09    108.169182 -18966.208776 -22727.276328   5424.992268                    
PE11 -10687.782174 -19634.917368  19395.164709   4861.994401                    
PE12  10906.254564 -12406.124886  24569.446910   4853.620749                    
PE13  10164.674470  19504.373160 -19799.200195    424.816965                    
PE14  11207.473603  16894.743795 -23900.406672  -1679.717124                    
PE15 -10933.968961  12300.067281 -24590.575642    774.426431                    
PE18 -20549.442606  -5462.302835  14611.117369  -1847.823843                    
PE19  26386.054496  -7852.988153  10882.231681    455.794783                    
PE21  14298.248806  16471.143223 -20005.213667   -706.138315                    
PE24  -3099.094268 -29318.534695   2816.833409  -1287.731632                    
PE25 -14217.298034 -16726.487226  19869.102402   -557.357085                    
PE26  25531.460303  14782.962392  -2345.922048   -586.634135                    
PE27   3975.046423  29055.736019  -3945.389251   -190.081134                    
PE30  -9375.483363  23608.770952  15170.536438   -121.475242                    
PE31   8588.670955 -24462.317877 -14285.725043   -489.559813                    
PE33  25505.415048   2115.638696  14885.226270   -461.289790                    
PE36 -25160.531183 -15214.040805   3415.643515   -305.875146                    
PG01  22446.528751  14179.771957   2957.741669    480.190244                    
PG02  -9349.333140 -19118.481971  16490.124031   -646.128210                    
PG03  12972.272925  10653.139386  20505.249195    -46.530524                    
PG04  21033.640805   3414.526818  15903.735614   -198.514669                    
PG05  -6357.407219 -23270.565784 -11104.012063    -64.906253                    
PG06   6490.548029 -13363.358898  22080.961126    146.662027                    
PG07  21287.953023   1668.445378 -15725.012372    292.517141                    
PG08  11905.602046  10664.488564 -21279.148849    -48.653046                    
PG09  24885.519103  -6712.230052   6403.687376   -360.144544                    
PG10 -11582.743719  18998.105427 -14146.824557   -272.183966                    
PG11  -6443.640750 -19927.311984  16340.612921     11.590898                    
PG12 -11239.036351 -13610.336149  19631.919400   -142.918356                    
PG13  -3274.777813 -14797.333179 -21961.348007    231.722285                    
PG14  12790.389795 -18409.008937 -14202.516928    -57.510518                    
PG15 -13814.622766  -9865.741812 -20889.947539    -98.076767                    
PG16   1365.165991  24834.965675  -8874.168596   -442.605064                    
PG17  21604.610571 -13671.704216   7697.865313    549.500911                    
PG18 -20453.167495   -849.240478 -16980.958990    276.933138                    
PG19  15951.912830 -15331.866219  14302.630795     94.114771                    
PG20  -1476.926988 -26662.770303   -163.254835    517.576728                    
PG21  20289.457656  16620.389635  -5159.825826    154.092255                    
PG22  11467.362000  18519.167187  15511.517008   -437.992912                    
PG23 -14824.440286   7831.863361 -20595.956271     20.308383                    
PG24 -22026.011362 -15157.758364  -1910.163886    275.313073                    
PG25 -15119.841588   -725.006726  21547.062333    257.938947                    
PG26  -5111.564661  25352.167940   5225.150456    166.359873                    
PG27    511.092072  15780.196518 -21481.140421      9.734997                    
PG28   9465.002307 -23826.015439  -6830.685069    440.155405                    
PG29 -24589.413487   1891.839492   9900.096955   -455.923876                    
PG30  14772.593985  -7862.931010 -20600.852599   -500.404559                    
PG31  -4929.722465  15038.327316  21146.618367   -155.741454                    
PG32 -18175.211182  16320.787130  10315.899992    -37.255466                    
PJ01 -29851.471647  29609.833109    904.755399     90.563356                    
PJ02 -26853.921901  25407.703588  25267.172384     -0.417970                    
PJ03 -31141.830264  17606.870961 -17564.014968     -9.728979                    
PR01   4700.912297 -18895.247338 -16478.925945      7.404892                    
PR02 -10344.198549  -4401.287031 -22856.384616    503.734412                    
PR03 -17900.702509  11236.874164 -14199.428175     48.394666                    
PR04 -15321.079719  20261.447497   2265.426533    119.505367                    
PR05  -4327.509746  18050.061533  17486.953534     84.443361                    
PR07  18062.737100 -11777.285737  13700.493430    -39.095817                    
PR08  15289.950786 -20310.977511  -2222.458039    -62.616535                    
PR09  13843.838328  16582.428657 -13606.925707     29.502684                    
PR11   3110.338592 -16602.807138 -19101.437046     48.690899                    
PR12  -7499.057644 -24138.458762  -3505.120584    287.721558                    
PR13 -13517.747733 -17401.367419  12838.474582    -15.808479                    
PR14 -11615.721849    409.589804  22714.548043     72.257578                    
PR15  -3020.541432  17131.209031  18672.063417     99.496307                    
PR17 -24234.782316   -391.513232  -8000.256495    484.855101                    
PR18 -13025.135521   7150.658192 -20697.112503    100.983077                    
PR19   3571.504931  11012.546353 -22721.272371   -171.213091                    
PR20  21616.004637   9000.709938 -10151.703414    -61.472529                    
PR21  23709.938746   -181.727091   9375.401137   -263.327931                    
PR22  12276.449157  -7358.680582  21132.385194   -152.404054                    
PR24 -22112.015476  -8532.940405   9475.409360     71.829793                    
EOF                                     
